start=new Date('2022-04-27T00:00:00.000Z').valueOf();
sats=[{"REF_FRAME":"TEME","COUNTRY_CODE":"US","PERIAPSIS":"546.299","CLASSIFICATION_TYPE":"U","RCS_SIZE":"LARGE","ELEMENT_SET_NO":"999","RA_OF_ASC_NODE":"24.0837","LAUNCH_DATE":"2021-04-07","MEAN_ANOMALY":"283.8135","ECCENTRICITY":"0.00013100","OBJECT_ID":"2021-027S","INCLINATION":"53.0567","BSTAR":"0.00009640200000","FILE":"3417474","APOAPSIS":"548.113","CENTER_NAME":"EARTH","SITE":"AFETR","EPOCH":"2022-04-26T20:31:45.288192","TIME_SYSTEM":"UTC","SEMIMAJOR_AXIS":"6925.341","DECAY_DATE":null,"MEAN_MOTION_DOT":"0.00001155","EPHEMERIS_TYPE":"0","MEAN_MOTION_DDOT":"0.0000000000000","OBJECT_TYPE":"PAYLOAD","OBJECT_NAME":"STARLINK-2444","TLE_LINE2":"2 48108  53.0567  24.0837 0001310  76.3000 283.8135 15.06402396 59600","MEAN_MOTION":"15.06402396","REV_AT_EPOCH":"5960","TLE_LINE1":"1 48108U 21027S   22116.85538528  .00001155  00000-0  96402-4 0  9996","NORAD_CAT_ID":"48108","ARG_OF_PERICENTER":"76.3000","PERIOD":"95.592","MEAN_ELEMENT_THEORY":"SGP4","GP_ID":"202109795"},{"SITE":"AFETR","CENTER_NAME":"EARTH","BSTAR":"-0.00002495400000","INCLINATION":"53.0583","APOAPSIS":"548.326","FILE":"3417175","LAUNCH_DATE":"2021-04-07","MEAN_ANOMALY":"295.2934","ECCENTRICITY":"0.00016000","OBJECT_ID":"2021-027T","ELEMENT_SET_NO":"999","RA_OF_ASC_NODE":"35.8086","PERIAPSIS":"546.110","COUNTRY_CODE":"US","RCS_SIZE":"LARGE","CLASSIFICATION_TYPE":"U","REF_FRAME":"TEME","MEAN_ELEMENT_THEORY":"SGP4","GP_ID":"202081874","TLE_LINE1":"1 48109U 21027T   22116.47112744 -.00000653  00000-0 -24954-4 0  9990","NORAD_CAT_ID":"48109","PERIOD":"95.592","ARG_OF_PERICENTER":"64.8221","TLE_LINE2":"2 48109  53.0583  35.8086 0001600  64.8221 295.2934 15.06398680 59013","MEAN_MOTION":"15.06398680","REV_AT_EPOCH":"5901","OBJECT_TYPE":"PAYLOAD","OBJECT_NAME":"STARLINK-2445","MEAN_MOTION_DDOT":"0.0000000000000","EPHEMERIS_TYPE":"0","MEAN_MOTION_DOT":"-0.00000653","TIME_SYSTEM":"UTC","SEMIMAJOR_AXIS":"6925.353","DECAY_DATE":null,"EPOCH":"2022-04-26T11:18:25.410816"},{"SITE":"AFETR","CENTER_NAME":"EARTH","BSTAR":"0.00013929000000","INCLINATION":"53.0567","APOAPSIS":"548.335","FILE":"3417474","LAUNCH_DATE":"2021-04-07","ECCENTRICITY":"0.00015860","MEAN_ANOMALY":"293.7639","OBJECT_ID":"2021-027U","ELEMENT_SET_NO":"999","RA_OF_ASC_NODE":"23.8378","PERIAPSIS":"546.139","COUNTRY_CODE":"US","CLASSIFICATION_TYPE":"U","RCS_SIZE":"LARGE","REF_FRAME":"TEME","GP_ID":"202111302","MEAN_ELEMENT_THEORY":"SGP4","NORAD_CAT_ID":"48110","TLE_LINE1":"1 48110U 21027U   22116.91067983  .00001793  00000-0  13929-3 0  9998","PERIOD":"95.593","ARG_OF_PERICENTER":"66.3517","TLE_LINE2":"2 48110  53.0567  23.8378 0001586  66.3517 293.7639 15.06392332 59626","MEAN_MOTION":"15.06392332","REV_AT_EPOCH":"5962","OBJECT_TYPE":"PAYLOAD","OBJECT_NAME":"STARLINK-2447","MEAN_MOTION_DDOT":"0.0000000000000","EPHEMERIS_TYPE":"0","MEAN_MOTION_DOT":"0.00001793","TIME_SYSTEM":"UTC","SEMIMAJOR_AXIS":"6925.372","DECAY_DATE":null,"EPOCH":"2022-04-26T21:51:22.737312"},{"RA_OF_ASC_NODE":"23.8581","ELEMENT_SET_NO":"999","REF_FRAME":"TEME","PERIAPSIS":"546.283","COUNTRY_CODE":"US","RCS_SIZE":"LARGE","CLASSIFICATION_TYPE":"U","CENTER_NAME":"EARTH","SITE":"AFETR","OBJECT_ID":"2021-027V","LAUNCH_DATE":"2021-04-07","MEAN_ANOMALY":"275.0936","ECCENTRICITY":"0.00013520","FILE":"3417474","APOAPSIS":"548.156","INCLINATION":"53.0563","BSTAR":"0.00028496000000","MEAN_MOTION_DOT":"0.00003965","MEAN_MOTION_DDOT":"0.0000000000000","EPHEMERIS_TYPE":"0","EPOCH":"2022-04-26T21:44:42.179136","SEMIMAJOR_AXIS":"6925.355","DECAY_DATE":null,"TIME_SYSTEM":"UTC","NORAD_CAT_ID":"48111","TLE_LINE1":"1 48111U 21027V   22116.90604374  .00003965  00000-0  28496-3 0  9997","ARG_OF_PERICENTER":"85.0207","PERIOD":"95.592","MEAN_ELEMENT_THEORY":"SGP4","GP_ID":"202110049","OBJECT_NAME":"STARLINK-2448","OBJECT_TYPE":"PAYLOAD","MEAN_MOTION":"15.06397989","REV_AT_EPOCH":"5962","TLE_LINE2":"2 48111  53.0563  23.8581 0001352  85.0207 275.0936 15.06397989 59620"},{"TLE_LINE1":"1 48112U 21027W   22116.81436100 -.00000339  00000-0 -38656-5 0  9993","NORAD_CAT_ID":"48112","ARG_OF_PERICENTER":"67.9717","PERIOD":"95.593","GP_ID":"202110296","MEAN_ELEMENT_THEORY":"SGP4","OBJECT_TYPE":"PAYLOAD","OBJECT_NAME":"STARLINK-2449","TLE_LINE2":"2 48112  53.0552  39.2591 0001418  67.9717 292.1423 15.06387972 59395","MEAN_MOTION":"15.06387972","REV_AT_EPOCH":"5939","MEAN_MOTION_DOT":"-0.00000339","MEAN_MOTION_DDOT":"0.0000000000000","EPHEMERIS_TYPE":"0","EPOCH":"2022-04-26T19:32:40.790400","TIME_SYSTEM":"UTC","SEMIMAJOR_AXIS":"6925.385","DECAY_DATE":null,"CENTER_NAME":"EARTH","SITE":"AFETR","LAUNCH_DATE":"2021-04-07","MEAN_ANOMALY":"292.1423","ECCENTRICITY":"0.00014180","OBJECT_ID":"2021-027W","INCLINATION":"53.0552","BSTAR":"-0.00000386560000","APOAPSIS":"548.232","FILE":"3417474","ELEMENT_SET_NO":"999","RA_OF_ASC_NODE":"39.2591","REF_FRAME":"TEME","COUNTRY_CODE":"US","PERIAPSIS":"546.268","RCS_SIZE":"LARGE","CLASSIFICATION_TYPE":"U"},{"DECAY_DATE":null,"SEMIMAJOR_AXIS":"6925.354","TIME_SYSTEM":"UTC","EPOCH":"2022-04-26T12:00:52.989984","MEAN_MOTION_DDOT":"0.0000000000000","EPHEMERIS_TYPE":"0","MEAN_MOTION_DOT":"0.00000299","REV_AT_EPOCH":"5940","MEAN_MOTION":"15.06398199","TLE_LINE2":"2 48113  53.0560  35.6762 0001433  69.1007 291.0135 15.06398199 59401","OBJECT_NAME":"STARLINK-2450","OBJECT_TYPE":"PAYLOAD","GP_ID":"202075638","MEAN_ELEMENT_THEORY":"SGP4","PERIOD":"95.592","ARG_OF_PERICENTER":"69.1007","TLE_LINE1":"1 48113U 21027X   22116.50061331  .00000299  00000-0  38989-4 0  9991","NORAD_CAT_ID":"48113","RCS_SIZE":"LARGE","CLASSIFICATION_TYPE":"U","COUNTRY_CODE":"US","PERIAPSIS":"546.227","REF_FRAME":"TEME","RA_OF_ASC_NODE":"35.6762","ELEMENT_SET_NO":"999","FILE":"3417035","APOAPSIS":"548.211","INCLINATION":"53.0560","BSTAR":"0.00003898900000","OBJECT_ID":"2021-027X","MEAN_ANOMALY":"291.0135","ECCENTRICITY":"0.00014330","LAUNCH_DATE":"2021-04-07","SITE":"AFETR","CENTER_NAME":"EARTH"},{"EPOCH":"2022-04-26T20:37:41.373696","TIME_SYSTEM":"UTC","DECAY_DATE":null,"SEMIMAJOR_AXIS":"6925.346","MEAN_MOTION_DOT":"0.00002035","MEAN_MOTION_DDOT":"0.0000000000000","EPHEMERIS_TYPE":"0","OBJECT_TYPE":"PAYLOAD","OBJECT_NAME":"STARLINK-2451","TLE_LINE2":"2 48114  53.0569  29.0733 0001239  84.7482 275.3649 15.06400708 59540","REV_AT_EPOCH":"5954","MEAN_MOTION":"15.06400708","PERIOD":"95.592","ARG_OF_PERICENTER":"84.7482","NORAD_CAT_ID":"48114","TLE_LINE1":"1 48114U 21027Y   22116.85950664  .00002035  00000-0  15548-3 0  9991","MEAN_ELEMENT_THEORY":"SGP4","GP_ID":"202110802","REF_FRAME":"TEME","CLASSIFICATION_TYPE":"U","RCS_SIZE":"LARGE","PERIAPSIS":"546.353","COUNTRY_CODE":"US","ELEMENT_SET_NO":"999","RA_OF_ASC_NODE":"29.0733","ECCENTRICITY":"0.00012390","MEAN_ANOMALY":"275.3649","LAUNCH_DATE":"2021-04-07","OBJECT_ID":"2021-027Y","BSTAR":"0.00015548000000","INCLINATION":"53.0569","FILE":"3417474","APOAPSIS":"548.069","CENTER_NAME":"EARTH","SITE":"AFETR"},{"RA_OF_ASC_NODE":"23.9431","ELEMENT_SET_NO":"999","CLASSIFICATION_TYPE":"U","RCS_SIZE":"LARGE","PERIAPSIS":"546.165","COUNTRY_CODE":"US","REF_FRAME":"TEME","SITE":"AFETR","CENTER_NAME":"EARTH","APOAPSIS":"548.190","FILE":"3417474","INCLINATION":"53.0560","BSTAR":"0.00008598600000","OBJECT_ID":"2021-027Z","ECCENTRICITY":"0.00014620","MEAN_ANOMALY":"287.9967","LAUNCH_DATE":"2021-04-07","MEAN_MOTION_DDOT":"0.0000000000000","EPHEMERIS_TYPE":"0","MEAN_MOTION_DOT":"0.00001000","DECAY_DATE":null,"SEMIMAJOR_AXIS":"6925.312","TIME_SYSTEM":"UTC","EPOCH":"2022-04-26T21:18:09.880704","MEAN_ELEMENT_THEORY":"SGP4","GP_ID":"202109549","ARG_OF_PERICENTER":"72.1181","PERIOD":"95.591","NORAD_CAT_ID":"48115","TLE_LINE1":"1 48115U 21027Z   22116.88761436  .00001000  00000-0  85986-4 0  9997","REV_AT_EPOCH":"5961","MEAN_MOTION":"15.06411897","TLE_LINE2":"2 48115  53.0560  23.9431 0001462  72.1181 287.9967 15.06411897 59616","OBJECT_NAME":"STARLINK-2452","OBJECT_TYPE":"PAYLOAD"},{"RCS_SIZE":"LARGE","CLASSIFICATION_TYPE":"U","PERIAPSIS":"546.213","COUNTRY_CODE":"US","REF_FRAME":"TEME","RA_OF_ASC_NODE":"35.6759","ELEMENT_SET_NO":"999","APOAPSIS":"548.252","FILE":"3416865","BSTAR":"0.00016262000000","INCLINATION":"53.0552","OBJECT_ID":"2021-027AA","ECCENTRICITY":"0.00014720","MEAN_ANOMALY":"292.0971","LAUNCH_DATE":"2021-04-07","SITE":"AFETR","CENTER_NAME":"EARTH","DECAY_DATE":null,"SEMIMAJOR_AXIS":"6925.368","TIME_SYSTEM":"UTC","EPOCH":"2022-04-26T11:55:34.750272","MEAN_MOTION_DDOT":"0.0000000000000","EPHEMERIS_TYPE":"0","MEAN_MOTION_DOT":"0.00002141","REV_AT_EPOCH":"5901","MEAN_MOTION":"15.06393805","TLE_LINE2":"2 48116  53.0552  35.6759 0001472  68.0174 292.0971 15.06393805 59012","OBJECT_NAME":"STARLINK-2454","OBJECT_TYPE":"PAYLOAD","MEAN_ELEMENT_THEORY":"SGP4","GP_ID":"202049159","ARG_OF_PERICENTER":"68.0174","PERIOD":"95.593","NORAD_CAT_ID":"48116","TLE_LINE1":"1 48116U 21027AA  22116.49692998  .00002141  00000-0  16262-3 0  9998"},{"OBJECT_NAME":"STARLINK-2455","OBJECT_TYPE":"PAYLOAD","REV_AT_EPOCH":"5975","MEAN_MOTION":"15.06414336","TLE_LINE2":"2 48117  53.0573  14.0290 0001391  83.4105 276.7042 15.06414336 59754","ARG_OF_PERICENTER":"83.4105","PERIOD":"95.591","TLE_LINE1":"1 48117U 21027AB  22116.86736818  .00010207  00000-0  70286-3 0  9998","NORAD_CAT_ID":"48117","GP_ID":"202111051","MEAN_ELEMENT_THEORY":"SGP4","EPOCH":"2022-04-26T20:49:00.610752","DECAY_DATE":null,"SEMIMAJOR_AXIS":"6925.305","TIME_SYSTEM":"UTC","MEAN_MOTION_DOT":"0.00010207","MEAN_MOTION_DDOT":"0.0000000000000","EPHEMERIS_TYPE":"0","OBJECT_ID":"2021-027AB","MEAN_ANOMALY":"276.7042","ECCENTRICITY":"0.00013910","LAUNCH_DATE":"2021-04-07","APOAPSIS":"548.133","FILE":"3417474","INCLINATION":"53.0573","BSTAR":"0.00070286000000","CENTER_NAME":"EARTH","SITE":"AFETR","REF_FRAME":"TEME","CLASSIFICATION_TYPE":"U","RCS_SIZE":"LARGE","COUNTRY_CODE":"US","PERIAPSIS":"546.206","RA_OF_ASC_NODE":"14.0290","ELEMENT_SET_NO":"999"}];
